[{"OBJECT_NAME":"GEOSCAN 2 (RS92S2)","OBJECT_ID":"2025-155Q","EPOCH":"2026-03-09T23:01:48.939744","MEAN_MOTION":15.28709337,"ECCENTRICITY":0.00085277,"INCLINATION":97.4463,"RA_OF_ASC_NODE":37.5259,"ARG_OF_PERICENTER":140.9505,"MEAN_ANOMALY":219.2352,"EPHEMERIS_TYPE":0,"CLASSIFICATION_TYPE":"U","NORAD_CAT_ID":64890,"ELEMENT_SET_NO":999,"REV_AT_EPOCH":6561,"BSTAR":0.00051551761,"MEAN_MOTION_DOT":0.00014341,"MEAN_MOTION_DDOT":0},{"OBJECT_NAME":"STARLINK-36208","OBJECT_ID":"2025-299G","EPOCH":"2026-03-09T22:00:01.999584","MEAN_MOTION":15.27598092,"ECCENTRICITY":0.00010772,"INCLINATION":42.9994,"RA_OF_ASC_NODE":167.3604,"ARG_OF_PERICENTER":316.6192,"MEAN_ANOMALY":92.7186,"EPHEMERIS_TYPE":0,"CLASSIFICATION_TYPE":"U","NORAD_CAT_ID":67108,"ELEMENT_SET_NO":999,"REV_AT_EPOCH":579,"BSTAR":-0.00043004302,"MEAN_MOTION_DOT":-0.00012083,"MEAN_MOTION_DDOT":0}]
